NORAD_CAT_ID,OBJECT_NAME,OBJECT_TYPE,EPOCH,MEAN_MOTION,ECCENTRICITY,INCLINATION,RA_OF_ASC_NODE,ARG_OF_PERICENTER,MEAN_ANOMALY,BSTAR,MEAN_MOTION_DOT,MEAN_MOTION_DDOT,TLE_LINE0,TLE_LINE1,TLE_LINE2,SEMIMAJOR_AXIS,PERIOD,APOGEE,PERIGEE,DECAYED
51877.0,STARLINK-3556,PAYLOAD,2022-12-15 18:54:11,15.08839528,0.0002081,53.2177,255.911,34.7231,325.3897,0.00011785,1.588e-05,0.0,0 STARLINK-3556,1 51877U 22022AB  22349.78763601  .00001588  00000-0  11785-3 0  9991,2 51877  53.2177 255.9110 0002081  34.7231 325.3897 15.08839528 45127,6917.882,95.438,541.186,538.307,0.0
51877.0,STARLINK-3556,PAYLOAD,2022-12-16 10:48:04,15.08828959,0.0001973,53.2175,252.9379,33.1444,326.9671,3.3793e-05,2.5e-06,0.0,0 STARLINK-3556,1 51877U 22022AB  22350.45004823  .00000250  00000-0  33793-4 0  9990,2 51877  53.2175 252.9379 0001973  33.1444 326.9671 15.08828959 45221,6917.9140000000025,95.438,541.144,538.414,0.0
51877.0,STARLINK-3556,PAYLOAD,2022-12-16 18:44:59,15.08831925,0.0002053,53.2178,251.4504,35.0453,325.0674,1.1552e-05,-1.04e-06,0.0,0 STARLINK-3556,1 51877U 22022AB  22350.78124834 -.00000104  00000-0  11552-4 0  9999,2 51877  53.2178 251.4504 0002053  35.0453 325.0674 15.08831925 45274,6917.905,95.438,541.19,538.35,0.0
51877.0,STARLINK-3556,PAYLOAD,2022-12-17 10:38:50,15.08839757,0.0002069,53.2176,248.4759,34.9136,325.1992,1.14e-05,-1.07e-06,0.0,0 STARLINK-3556,1 51877U 22022AB  22351.44364563 -.00000107  00000-0  11400-4 0  9993,2 51877  53.2176 248.4759 0002069  34.9136 325.1992 15.08839757 45379,6917.880999999999,95.438,541.177,538.315,0.0
51877.0,STARLINK-3556,PAYLOAD,2022-12-18 10:29:38,15.08836793,0.0002089,53.2181,244.0168,35.2154,324.8976,0.00012853,1.758e-05,0.0,0 STARLINK-3556,1 51877U 22022AB  22352.43724672  .00001758  00000-0  12853-3 0  9998,2 51877  53.2181 244.0168 0002089  35.2154 324.8976 15.08836793 45529,6917.89,95.438,541.2,538.31,0.0
51877.0,STARLINK-3556,PAYLOAD,2022-12-18 18:26:34,15.0883289,0.0002222,53.2183,242.5312,39.2054,320.9098,2.2216e-05,6.5e-07,0.0,0 STARLINK-3556,1 51877U 22022AB  22352.76845421  .00000065  00000-0  22216-4 0  9995,2 51877  53.2183 242.5312 0002222  39.2054 320.9098 15.08832890 45578,6917.901999999999,95.438,541.304,538.23,0.0
51877.0,STARLINK-3556,PAYLOAD,2022-12-19 10:20:25,15.08837767,0.0002204,53.2182,239.5573,38.8696,321.2454,5.170100000000001e-05,5.35e-06,0.0,0 STARLINK-3556,1 51877U 22022AB  22353.43085267  .00000535  00000-0  51701-4 0  9997,2 51877  53.2182 239.5573 0002204  38.8696 321.2454 15.08837767 45678,6917.887,95.438,541.2769999999998,538.2280000000002,0.0
51877.0,STARLINK-3556,PAYLOAD,2022-12-19 16:41:57,15.08841965,0.0002136,53.218,238.368,37.3639,322.7501,4.4609e-05,4.22e-06,0.0,0 STARLINK-3556,1 51877U 22022AB  22353.69581006  .00000422  00000-0  44609-4 0  9991,2 51877  53.2180 238.3680 0002136  37.3639 322.7501 15.08841965 45716,6917.874,95.437,541.217,538.262,0.0
51877.0,STARLINK-3556,PAYLOAD,2022-12-19 23:03:29,15.08849006,0.0002133,53.2178,237.1781,40.0961,320.0188,7.2325e-05,8.63e-06,0.0,0 STARLINK-3556,1 51877U 22022AB  22353.96076387  .00000863  00000-0  72325-4 0  9997,2 51877  53.2178 237.1781 0002133  40.0961 320.0188 15.08849006 45758,6917.853,95.437,541.193,538.242,0.0
51877.0,STARLINK-3556,PAYLOAD,2022-12-20 02:14:16,15.08849418,0.0002139,53.2177,236.5835,37.2744,322.8396,0.00014492,2.02e-05,0.0,0 STARLINK-3556,1 51877U 22022AB  22354.09324177  .00002020  00000-0  14492-3 0  9992,2 51877  53.2177 236.5835 0002139  37.2744 322.8396 15.08849418 45773,6917.852,95.437,541.196,538.237,0.0
51877.0,STARLINK-3556,PAYLOAD,2022-12-20 19:43:32,15.08826108,0.0001874,53.2175,233.3127,45.8842,314.2304,4.9862e-06,-2.09e-06,0.0,0 STARLINK-3556,1 51877U 22022AB  22354.82190347 -.00000209  00000-0  49862-5 0  9992,2 51877  53.2175 233.3127 0001874  45.8842 314.2304 15.08826108 45886,6917.9230000000025,95.438,541.0840000000002,538.491,0.0
51877.0,STARLINK-3556,PAYLOAD,2022-12-21 08:26:37,15.08835066,0.000207,53.2168,230.9336,44.58,315.5358,5.6559e-05,6.12e-06,0.0,0 STARLINK-3556,1 51877U 22022AB  22355.35182041  .00000612  00000-0  56559-4 0  9990,2 51877  53.2168 230.9336 0002070  44.5800 315.5358 15.08835066 45967,6917.895,95.438,541.192,538.328,0.0
51877.0,STARLINK-3556,PAYLOAD,2022-12-22 01:55:51,15.08850749,0.0001968,53.2164,227.6628,49.0663,311.05,0.00035434,5.357e-05,0.0,0 STARLINK-3556,1 51877U 22022AB  22356.08045559  .00005357  00000-0  35434-3 0  9992,2 51877  53.2164 227.6628 0001968  49.0663 311.0500 15.08850749 46070,6917.848000000001,95.437,541.0740000000002,538.351,0.0
51877.0,STARLINK-3556,PAYLOAD,2022-12-22 08:17:23,15.08854757,0.0002046,53.2164,226.4731,47.668,312.4486,0.00050367,7.74e-05,0.0,0 STARLINK-3556,1 51877U 22022AB  22356.34541457  .00007740  00000-0  50367-3 0  9999,2 51877  53.2164 226.4731 0002046  47.6680 312.4486 15.08854757 46119,6917.835,95.437,541.116,538.285,0.0
51877.0,STARLINK-3556,PAYLOAD,2022-12-22 21:00:28,15.08851236,0.0001942,53.2167,224.0955,53.8874,306.2298,0.00027178,4.041e-05,0.0,0 STARLINK-3556,1 51877U 22022AB  22356.87533328  .00004041  00000-0  27178-3 0  9990,2 51877  53.2167 224.0955 0001942  53.8874 306.2298 15.08851236 46191,6917.846,95.437,541.054,538.368,0.0
51877.0,STARLINK-3556,PAYLOAD,2022-12-23 03:22:01,15.08842201,0.0002235,53.2157,222.9057,46.9945,313.1234,-9.7542e-05,-1.841e-05,0.0,0 STARLINK-3556,1 51877U 22022AB  22357.14029421 -.00001841  00000-0 -97542-4 0  9995,2 51877  53.2157 222.9057 0002235  46.9945 313.1234 15.08842201 46232,6917.874,95.437,541.285,538.193,0.0
51877.0,STARLINK-3556,PAYLOAD,2022-12-23 08:08:10,15.08837878,0.0002012,53.2152,222.0133,48.6033,311.5131,-0.00020088,-3.484e-05,0.0,0 STARLINK-3556,1 51877U 22022AB  22357.33901451 -.00003484  00000-0 -20088-3 0  9993,2 51877  53.2152 222.0133 0002012  48.6033 311.5131 15.08837878 46268,6917.887,95.438,541.144,538.36,0.0
51877.0,STARLINK-3556,PAYLOAD,2022-12-23 19:15:52,15.08841591,0.0001878,53.2147,219.9313,48.982,311.1334,0.00011115,1.481e-05,0.0,0 STARLINK-3556,1 51877U 22022AB  22357.80269414  .00001481  00000-0  11115-3 0  9995,2 51877  53.2147 219.9313 0001878  48.9820 311.1334 15.08841591 46339,6917.876,95.437,541.04,538.441,0.0
51877.0,STARLINK-3556,PAYLOAD,2022-12-24 07:58:57,15.08845061,0.0001925,53.2148,217.5527,48.681,311.4347,0.0001959,2.831e-05,0.0,0 STARLINK-3556,1 51877U 22022AB  22358.33261368  .00002831  00000-0  19590-3 0  9999,2 51877  53.2148 217.5527 0001925  48.6810 311.4347 15.08845061 46412,6917.865,95.437,541.062,538.398,0.0
51877.0,STARLINK-3556,PAYLOAD,2022-12-24 20:42:02,15.08851015,0.0001924,53.2149,215.1734,47.6209,312.4946,0.0003662,5.547e-05,0.0,0 STARLINK-3556,1 51877U 22022AB  22358.86253137  .00005547  00000-0  36620-3 0  9992,2 51877  53.2149 215.1734 0001924  47.6209 312.4946 15.08851015 46497,6917.847,95.437,541.043,538.381,0.0
51877.0,STARLINK-3556,PAYLOAD,2022-12-25 07:49:44,15.08841048,0.0002021,53.2145,213.0912,49.3823,310.7344,8.8438e-05,1.12e-05,0.0,0 STARLINK-3556,1 51877U 22022AB  22359.32621438  .00001120  00000-0  88438-4 0  9995,2 51877  53.2145 213.0912 0002021  49.3823 310.7344 15.08841048 46564,6917.877,95.437,541.14,538.344,0.0
51877.0,STARLINK-3556,PAYLOAD,2022-12-26 07:40:31,15.08849379,0.0002117,53.2151,208.631,49.3021,310.8155,0.00023061,3.385e-05,0.0,0 STARLINK-3556,1 51877U 22022AB  22360.31981111  .00003385  00000-0  23061-3 0  9998,2 51877  53.2151 208.6310 0002117  49.3021 310.8155 15.08849379 46712,6917.852,95.437,541.181,538.252,0.0
51877.0,STARLINK-3556,PAYLOAD,2022-12-26 17:12:50,15.08838598,0.0002001,53.2149,206.8467,51.3616,308.7555,1.9819e-05,2.7e-07,0.0,0 STARLINK-3556,1 51877U 22022AB  22360.71725496  .00000027  00000-0  19819-4 0  9991,2 51877  53.2149 206.8467 0002001  51.3616 308.7555 15.08838598 46774,6917.885,95.438,541.134,538.365,0.0
51877.0,STARLINK-3556,PAYLOAD,2022-12-26 20:23:37,15.0883742,0.0001955,53.2152,206.2517,51.5659,308.5509,-2.4241e-07,-2.92e-06,0.0,0 STARLINK-3556,1 51877U 22022AB  22360.84973556 -.00000292  00000-0 -24241-6 0  9990,2 51877  53.2152 206.2517 0001955  51.5659 308.5509 15.08837420 46796,6917.888000000001,95.438,541.106,538.401,0.0
51877.0,STARLINK-3556,PAYLOAD,2022-12-26 23:34:23,15.0883884,0.0001958,53.2155,205.6571,51.2232,308.8935,-7.198e-06,-4.03e-06,0.0,0 STARLINK-3556,1 51877U 22022AB  22360.98221617 -.00000403  00000-0 -71980-5 0  9994,2 51877  53.2155 205.6571 0001958  51.2232 308.8935 15.08838840 46815,6917.884,95.438,541.1030000000002,538.394,0.0
51877.0,STARLINK-3556,PAYLOAD,2022-12-27 13:52:51,15.08841536,0.0001897,53.2156,202.981,52.7063,307.4102,0.00012216,1.657e-05,0.0,0 STARLINK-3556,1 51877U 22022AB  22361.57837572  .00001657  00000-0  12216-3 0  9998,2 51877  53.2156 202.9810 0001897  52.7063 307.4102 15.08841536 46909,6917.876,95.437,541.053,538.428,0.0
51877.0,STARLINK-3556,PAYLOAD,2022-12-28 01:00:33,15.08844488,0.0001883,53.2156,200.8995,54.1776,305.939,0.0001386999999999,1.92e-05,0.0,0 STARLINK-3556,1 51877U 22022AB  22362.04205359  .00001920  00000-0  13870-3 0  9993,2 51877  53.2156 200.8995 0001883  54.1776 305.9390 15.08844488 46970,6917.8669999999975,95.437,541.034,538.429,0.0
51877.0,STARLINK-3556,PAYLOAD,2022-12-28 13:43:38,15.08842479,0.0001919,53.2156,198.5205,54.5108,305.6063,8.827700000000001e-05,1.117e-05,0.0,0 STARLINK-3556,1 51877U 22022AB  22362.57197404  .00001117  00000-0  88277-4 0  9994,2 51877  53.2156 198.5205 0001919  54.5108 305.6063 15.08842479 47052,6917.873000000001,95.437,541.065,538.41,0.0
51877.0,STARLINK-3556,PAYLOAD,2022-12-28 16:54:24,15.08840547,0.0001974,53.2156,197.9256,51.4009,308.716,0.00014212,1.974e-05,0.0,0 STARLINK-3556,1 51877U 22022AB  22362.70445526  .00001974  00000-0  14212-3 0  9998,2 51877  53.2156 197.9256 0001974  51.4009 308.7160 15.08840547 47076,6917.879,95.438,541.109,538.378,0.0
